{"type": "FeatureCollection", "features": [{"type": "Feature", "properties": {"norad_id": 24876, "name": "GPS BIIR-2  (PRN 13)", "group": "gnss", "lat": -19.278950649977897, "lon": -60.86249034837509, "alt_km": 20398.641490379425, "timestamp": "2025-12-23T11:34:48.409179+00:00", "meta": {"OBJECT_NAME": "GPS BIIR-2  (PRN 13)", "OBJECT_ID": "1997-035A", "EPOCH": "2025-12-22T04:56:13.490880", "MEAN_MOTION": 2.00563727, "ECCENTRICITY": 0.00968316, "INCLINATION": 55.8997, "RA_OF_ASC_NODE": 105.4987, "ARG_OF_PERICENTER": 56.961, "MEAN_ANOMALY": 303.9513, "EPHEMERIS_TYPE": 0, "CLASSIFICATION_TYPE": "U", "NORAD_CAT_ID": 24876, "ELEMENT_SET_NO": 999, "REV_AT_EPOCH": 20840, "BSTAR": 0, "MEAN_MOTION_DOT": 1.2e-07, "MEAN_MOTION_DDOT": 0}, "tle": {"line1": "1 24876U 97035A   25356.20571170  .00000012  00000+0  00000+0 0  9996", "line2": "2 24876  55.8997 105.4987 0096831  56.9610 303.9513  2.00563727208400"}}, "geometry": {"type": "Point", "coordinates": [-60.86249034837509, -19.278950649977897]}}, {"type": "Feature", "properties": {"norad_id": 26360, "name": "GPS BIIR-4  (PRN 20)", "group": "gnss", "lat": -47.864232715901174, "lon": -24.188382130175597, "alt_km": 20123.581345403338, "timestamp": "2025-12-23T11:34:48.409224+00:00", "meta": {"OBJECT_NAME": "GPS BIIR-4  (PRN 20)", "OBJECT_ID": "2000-025A", "EPOCH": "2025-12-23T02:03:28.748160", "MEAN_MOTION": 2.00566833, "ECCENTRICITY": 0.0038893, "INCLINATION": 55.0513, "RA_OF_ASC_NODE": 26.4195, "ARG_OF_PERICENTER": 242.9692, "MEAN_ANOMALY": 125.4419, "EPHEMERIS_TYPE": 0, "CLASSIFICATION_TYPE": "U", "NORAD_CAT_ID": 26360, "ELEMENT_SET_NO": 999, "REV_AT_EPOCH": 18774, "BSTAR": 0, "MEAN_MOTION_DOT": -5.8e-07, "MEAN_MOTION_DDOT": 0}, "tle": {"line1": "1 26360U 00025A   25357.08574940 -.00000058  00000+0  00000+0 0  9995", "line2": "2 26360  55.0513  26.4195 0038893 242.9692 125.4419  2.00566833187746"}}, "geometry": {"type": "Point", "coordinates": [-24.188382130175597, -47.864232715901174]}}, {"type": "Feature", "properties": {"norad_id": 26407, "name": "GPS BIIR-5  (PRN 22)", "group": "gnss", "lat": 35.88317594497184, "lon": 11.565698569396083, "alt_km": 20502.48273457336, "timestamp": "2025-12-23T11:34:48.409242+00:00", "meta": {"OBJECT_NAME": "GPS BIIR-5  (PRN 22)", "OBJECT_ID": "2000-040A", "EPOCH": "2025-12-22T19:22:12.785952", "MEAN_MOTION": 2.00568096, "ECCENTRICITY": 0.01254555, "INCLINATION": 54.8886, "RA_OF_ASC_NODE": 222.1687, "ARG_OF_PERICENTER": 301.9761, "MEAN_ANOMALY": 64.903, "EPHEMERIS_TYPE": 0, "CLASSIFICATION_TYPE": "U", "NORAD_CAT_ID": 26407, "ELEMENT_SET_NO": 999, "REV_AT_EPOCH": 18641, "BSTAR": 0, "MEAN_MOTION_DOT": 6.7e-07, "MEAN_MOTION_DDOT": 0}, "tle": {"line1": "1 26407U 00040A   25356.80709243  .00000067  00000+0  00000+0 0  9998", "line2": "2 26407  54.8886 222.1687 0125455 301.9761  64.9030  2.00568096186415"}}, "geometry": {"type": "Point", "coordinates": [11.565698569396083, 35.88317594497184]}}, {"type": "Feature", "properties": {"norad_id": 27663, "name": "GPS BIIR-8  (PRN 16)", "group": "gnss", "lat": -54.90464319845913, "lon": 131.01162193335057, "alt_km": 20497.11189688729, "timestamp": "2025-12-23T11:34:48.409255+00:00", "meta": {"OBJECT_NAME": "GPS BIIR-8  (PRN 16)", "OBJECT_ID": "2003-005A", "EPOCH": "2025-12-22T15:01:01.940160", "MEAN_MOTION": 2.00570357, "ECCENTRICITY": 0.0147807, "INCLINATION": 54.9212, "RA_OF_ASC_NODE": 221.985, "ARG_OF_PERICENTER": 51.9453, "MEAN_ANOMALY": 319.9429, "EPHEMERIS_TYPE": 0, "CLASSIFICATION_TYPE": "U", "NORAD_CAT_ID": 27663, "ELEMENT_SET_NO": 999, "REV_AT_EPOCH": 16777, "BSTAR": 0, "MEAN_MOTION_DOT": 6.7e-07, "MEAN_MOTION_DDOT": 0}, "tle": {"line1": "1 27663U 03005A   25356.62571690  .00000067  00000+0  00000+0 0  9990", "line2": "2 27663  54.9212 221.9850 0147807  51.9453 319.9429  2.00570357167774"}}, "geometry": {"type": "Point", "coordinates": [131.01162193335057, -54.90464319845913]}}, {"type": "Feature", "properties": {"norad_id": 28190, "name": "GPS BIIR-11 (PRN 19)", "group": "gnss", "lat": 49.243583036783384, "lon": -22.87882783319599, "alt_km": 20224.60791604031, "timestamp": "2025-12-23T11:34:48.409268+00:00", "meta": {"OBJECT_NAME": "GPS BIIR-11 (PRN 19)", "OBJECT_ID": "2004-009A", "EPOCH": "2025-12-22T01:59:41.237952", "MEAN_MOTION": 2.00560473, "ECCENTRICITY": 0.01084919, "INCLINATION": 54.9772, "RA_OF_ASC_NODE": 282.8425, "ARG_OF_PERICENTER": 167.7907, "MEAN_ANOMALY": 330.6754, "EPHEMERIS_TYPE": 0, "CLASSIFICATION_TYPE": "U", "NORAD_CAT_ID": 28190, "ELEMENT_SET_NO": 999, "REV_AT_EPOCH": 15939, "BSTAR": 0, "MEAN_MOTION_DOT": -2.4e-07, "MEAN_MOTION_DDOT": 0}, "tle": {"line1": "1 28190U 04009A   25356.08311618 -.00000024  00000+0  00000+0 0  9997", "line2": "2 28190  54.9772 282.8425 0108491 167.7907 330.6754  2.00560473159399"}}, "geometry": {"type": "Point", "coordinates": [-22.87882783319599, 49.243583036783384]}}, {"type": "Feature", "properties": {"norad_id": 28474, "name": "GPS BIIR-13 (PRN 02)", "group": "gnss", "lat": 39.42722240209527, "lon": 117.1497909909195, "alt_km": 20631.692272078282, "timestamp": "2025-12-23T11:34:48.409281+00:00", "meta": {"OBJECT_NAME": "GPS BIIR-13 (PRN 02)", "OBJECT_ID": "2004-045A", "EPOCH": "2025-12-21T13:21:16.085088", "MEAN_MOTION": 2.00569985, "ECCENTRICITY": 0.0170919, "INCLINATION": 55.2363, "RA_OF_ASC_NODE": 332.0513, "ARG_OF_PERICENTER": 309.6441, "MEAN_ANOMALY": 228.908, "EPHEMERIS_TYPE": 0, "CLASSIFICATION_TYPE": "U", "NORAD_CAT_ID": 28474, "ELEMENT_SET_NO": 999, "REV_AT_EPOCH": 15486, "BSTAR": 0, "MEAN_MOTION_DOT": -7.1e-07, "MEAN_MOTION_DDOT": 0}, "tle": {"line1": "1 28474U 04045A   25355.55643617 -.00000071  00000+0  00000+0 0  9992", "line2": "2 28474  55.2363 332.0513 0170919 309.6441 228.9080  2.00569985154869"}}, "geometry": {"type": "Point", "coordinates": [117.1497909909195, 39.42722240209527]}}, {"type": "Feature", "properties": {"norad_id": 28874, "name": "GPS BIIRM-1 (PRN 17)", "group": "gnss", "lat": 55.03508245379474, "lon": 8.810371019426734, "alt_km": 20490.419890358513, "timestamp": "2025-12-23T11:34:48.409293+00:00", "meta": {"OBJECT_NAME": "GPS BIIRM-1 (PRN 17)", "OBJECT_ID": "2005-038A", "EPOCH": "2025-12-23T02:44:01.154400", "MEAN_MOTION": 2.00577746, "ECCENTRICITY": 0.013132, "INCLINATION": 55.0227, "RA_OF_ASC_NODE": 280.2833, "ARG_OF_PERICENTER": 293.7944, "MEAN_ANOMALY": 248.5863, "EPHEMERIS_TYPE": 0, "CLASSIFICATION_TYPE": "U", "NORAD_CAT_ID": 28874, "ELEMENT_SET_NO": 999, "REV_AT_EPOCH": 14830, "BSTAR": 0, "MEAN_MOTION_DOT": -2e-07, "MEAN_MOTION_DDOT": 0}, "tle": {"line1": "1 28874U 05038A   25357.11390225 -.00000020  00000+0  00000+0 0  9991", "line2": "2 28874  55.0227 280.2833 0131320 293.7944 248.5863  2.00577746148306"}}, "geometry": {"type": "Point", "coordinates": [8.810371019426734, 55.03508245379474]}}, {"type": "Feature", "properties": {"norad_id": 28899, "name": "INMARSAT 4-F2 (SOUTHPAN/PRN 122)", "group": "gnss", "lat": 0.5011176247656445, "lon": 49.48235110179596, "alt_km": 35792.64730826517, "timestamp": "2025-12-23T11:34:48.409306+00:00", "meta": {"OBJECT_NAME": "INMARSAT 4-F2 (SOUTHPAN/PRN 122)", "OBJECT_ID": "2005-044A", "EPOCH": "2025-12-22T22:24:23.827968", "MEAN_MOTION": 1.00275286, "ECCENTRICITY": 0.0002584, "INCLINATION": 4.863, "RA_OF_ASC_NODE": 43.707, "ARG_OF_PERICENTER": 232.1898, "MEAN_ANOMALY": 295.4415, "EPHEMERIS_TYPE": 0, "CLASSIFICATION_TYPE": "U", "NORAD_CAT_ID": 28899, "ELEMENT_SET_NO": 999, "REV_AT_EPOCH": 7375, "BSTAR": 0, "MEAN_MOTION_DOT": -2.41e-06, "MEAN_MOTION_DDOT": 0}, "tle": {"line1": "1 28899U 05044A   25356.93360912 -.00000241  00000+0  00000+0 0  9999", "line2": "2 28899   4.8630  43.7070 0002584 232.1898 295.4415  1.00275286 73755"}}, "geometry": {"type": "Point", "coordinates": [49.48235110179596, 0.5011176247656445]}}, {"type": "Feature", "properties": {"norad_id": 29486, "name": "GPS BIIRM-2 (PRN 31)", "group": "gnss", "lat": -8.386531503015464, "lon": 152.30777036233545, "alt_km": 20050.4451898837, "timestamp": "2025-12-23T11:34:48.409317+00:00", "meta": {"OBJECT_NAME": "GPS BIIRM-2 (PRN 31)", "OBJECT_ID": "2006-042A", "EPOCH": "2025-12-21T12:25:39.335232", "MEAN_MOTION": 2.00553827, "ECCENTRICITY": 0.01073004, "INCLINATION": 54.6951, "RA_OF_ASC_NODE": 158.3926, "ARG_OF_PERICENTER": 52.1628, "MEAN_ANOMALY": 320.0686, "EPHEMERIS_TYPE": 0, "CLASSIFICATION_TYPE": "U", "NORAD_CAT_ID": 29486, "ELEMENT_SET_NO": 999, "REV_AT_EPOCH": 14083, "BSTAR": 0, "MEAN_MOTION_DOT": 7.1e-07, "MEAN_MOTION_DDOT": 0}, "tle": {"line1": "1 29486U 06042A   25355.51781638  .00000071  00000+0  00000+0 0  9996", "line2": "2 29486  54.6951 158.3926 0107300  52.1628 320.0686  2.00553827140833"}}, "geometry": {"type": "Point", "coordinates": [152.30777036233545, -8.386531503015464]}}, {"type": "Feature", "properties": {"norad_id": 29601, "name": "GPS BIIRM-3 (PRN 12)", "group": "gnss", "lat": 37.810698471380604, "lon": -106.04070966934361, "alt_km": 19994.335265917096, "timestamp": "2025-12-23T11:34:48.409328+00:00", "meta": {"OBJECT_NAME": "GPS BIIRM-3 (PRN 12)", "OBJECT_ID": "2006-052A", "EPOCH": "2025-12-22T22:00:58.169088", "MEAN_MOTION": 2.00574295, "ECCENTRICITY": 0.0087996, "INCLINATION": 54.9685, "RA_OF_ASC_NODE": 220.9942, "ARG_OF_PERICENTER": 87.562, "MEAN_ANOMALY": 273.5353, "EPHEMERIS_TYPE": 0, "CLASSIFICATION_TYPE": "U", "NORAD_CAT_ID": 29601, "ELEMENT_SET_NO": 999, "REV_AT_EPOCH": 13987, "BSTAR": 0, "MEAN_MOTION_DOT": 6.8e-07, "MEAN_MOTION_DDOT": 0}, "tle": {"line1": "1 29601U 06052A   25356.91733992  .00000068  00000+0  00000+0 0  9997", "line2": "2 29601  54.9685 220.9942 0087996  87.5620 273.5353  2.00574295139872"}}, "geometry": {"type": "Point", "coordinates": [-106.04070966934361, 37.810698471380604]}}]}